[{"OBJECT_NAME":"STARLINK-30274","OBJECT_ID":"2023-124K","EPOCH":"2023-09-15T14:00:01.000224","MEAN_MOTION":15.43884794,"ECCENTRICITY":0.0001709,"INCLINATION":53.0541,"RA_OF_ASC_NODE":84.4294,"ARG_OF_PERICENTER":126.675,"MEAN_ANOMALY":57.64,"EPHEMERIS_TYPE":0,"CLASSIFICATION_TYPE":"U","NORAD_CAT_ID":57672,"ELEMENT_SET_NO":999,"REV_AT_EPOCH":492,"BSTAR":-0.00087637,"MEAN_MOTION_DOT":-0.00040628,"MEAN_MOTION_DDOT":0},{"OBJECT_NAME":"STARLINK-30316","OBJECT_ID":"2023-124L","EPOCH":"2023-09-15T14:00:01.000224","MEAN_MOTION":15.43865175,"ECCENTRICITY":0.0001564,"INCLINATION":53.0541,"RA_OF_ASC_NODE":84.4269,"ARG_OF_PERICENTER":101.1164,"MEAN_ANOMALY":84.3771,"EPHEMERIS_TYPE":0,"CLASSIFICATION_TYPE":"U","NORAD_CAT_ID":57673,"ELEMENT_SET_NO":999,"REV_AT_EPOCH":476,"BSTAR":6.6925e-5,"MEAN_MOTION_DOT":2.665e-5,"MEAN_MOTION_DDOT":0},{"OBJECT_NAME":"STARLINK-30314","OBJECT_ID":"2023-124M","EPOCH":"2023-09-15T14:00:01.000224","MEAN_MOTION":15.43860251,"ECCENTRICITY":0.0001963,"INCLINATION":53.054,"RA_OF_ASC_NODE":84.4239,"ARG_OF_PERICENTER":120.8529,"MEAN_ANOMALY":65.8283,"EPHEMERIS_TYPE":0,"CLASSIFICATION_TYPE":"U","NORAD_CAT_ID":57674,"ELEMENT_SET_NO":999,"REV_AT_EPOCH":471,"BSTAR":8.2591e-5,"MEAN_MOTION_DOT":3.387e-5,"MEAN_MOTION_DDOT":0},{"OBJECT_NAME":"STARLINK-30317","OBJECT_ID":"2023-124N","EPOCH":"2023-09-15T14:00:01.000224","MEAN_MOTION":15.43867509,"ECCENTRICITY":9.61e-5,"INCLINATION":53.054,"RA_OF_ASC_NODE":84.4251,"ARG_OF_PERICENTER":123.9553,"MEAN_ANOMALY":62.1278,"EPHEMERIS_TYPE":0,"CLASSIFICATION_TYPE":"U","NORAD_CAT_ID":57675,"ELEMENT_SET_NO":999,"REV_AT_EPOCH":506,"BSTAR":-9.5001e-5,"MEAN_MOTION_DOT":-4.796e-5,"MEAN_MOTION_DDOT":0},{"OBJECT_NAME":"STARLINK-30313","OBJECT_ID":"2023-124P","EPOCH":"2023-09-15T14:00:01.000224","MEAN_MOTION":15.43852147,"ECCENTRICITY":9.05e-5,"INCLINATION":53.054,"RA_OF_ASC_NODE":84.4238,"ARG_OF_PERICENTER":139.9168,"MEAN_ANOMALY":47.354,"EPHEMERIS_TYPE":0,"CLASSIFICATION_TYPE":"U","NORAD_CAT_ID":57676,"ELEMENT_SET_NO":999,"REV_AT_EPOCH":506,"BSTAR":0.0004762,"MEAN_MOTION_DOT":0.0002158,"MEAN_MOTION_DDOT":0},{"OBJECT_NAME":"STARLINK-30303","OBJECT_ID":"2023-124Q","EPOCH":"2023-09-15T14:00:01.000224","MEAN_MOTION":15.43866079,"ECCENTRICITY":0.0002642,"INCLINATION":53.0539,"RA_OF_ASC_NODE":84.4204,"ARG_OF_PERICENTER":135.6785,"MEAN_ANOMALY":53.3551,"EPHEMERIS_TYPE":0,"CLASSIFICATION_TYPE":"U","NORAD_CAT_ID":57677,"ELEMENT_SET_NO":999,"REV_AT_EPOCH":492,"BSTAR":5.7979e-6,"MEAN_MOTION_DOT":-1.54e-6,"MEAN_MOTION_DDOT":0},{"OBJECT_NAME":"STARLINK-30320","OBJECT_ID":"2023-124R","EPOCH":"2023-09-15T14:00:01.000224","MEAN_MOTION":15.43854022,"ECCENTRICITY":0.0002123,"INCLINATION":53.0541,"RA_OF_ASC_NODE":84.4223,"ARG_OF_PERICENTER":131.1326,"MEAN_ANOMALY":56.7262,"EPHEMERIS_TYPE":0,"CLASSIFICATION_TYPE":"U","NORAD_CAT_ID":57678,"ELEMENT_SET_NO":999,"REV_AT_EPOCH":507,"BSTAR":0.00045129,"MEAN_MOTION_DOT":0.00020428,"MEAN_MOTION_DDOT":0},{"OBJECT_NAME":"STARLINK-30321","OBJECT_ID":"2023-124S","EPOCH":"2023-09-15T14:00:01.000224","MEAN_MOTION":15.43861193,"ECCENTRICITY":0.0002148,"INCLINATION":53.054,"RA_OF_ASC_NODE":84.4168,"ARG_OF_PERICENTER":106.928,"MEAN_ANOMALY":83.876,"EPHEMERIS_TYPE":0,"CLASSIFICATION_TYPE":"U","NORAD_CAT_ID":57679,"ELEMENT_SET_NO":999,"REV_AT_EPOCH":460,"BSTAR":0.00015114,"MEAN_MOTION_DOT":6.551e-5,"MEAN_MOTION_DDOT":0},{"OBJECT_NAME":"STARLINK-30283","OBJECT_ID":"2023-124T","EPOCH":"2023-09-15T14:00:01.000224","MEAN_MOTION":15.43918,"ECCENTRICITY":0.0002015,"INCLINATION":53.0539,"RA_OF_ASC_NODE":84.4175,"ARG_OF_PERICENTER":128.7511,"MEAN_ANOMALY":61.4213,"EPHEMERIS_TYPE":0,"CLASSIFICATION_TYPE":"U","NORAD_CAT_ID":57680,"ELEMENT_SET_NO":999,"REV_AT_EPOCH":506,"BSTAR":-0.0012781,"MEAN_MOTION_DOT":-0.00058989,"MEAN_MOTION_DDOT":0},{"OBJECT_NAME":"STARLINK-30273","OBJECT_ID":"2023-124U","EPOCH":"2023-09-15T14:00:01.000224","MEAN_MOTION":15.4385527,"ECCENTRICITY":0.0002348,"INCLINATION":53.0541,"RA_OF_ASC_NODE":84.4213,"ARG_OF_PERICENTER":141.3542,"MEAN_ANOMALY":47.0971,"EPHEMERIS_TYPE":0,"CLASSIFICATION_TYPE":"U","NORAD_CAT_ID":57681,"ELEMENT_SET_NO":999,"REV_AT_EPOCH":506,"BSTAR":0.00035185,"MEAN_MOTION_DOT":0.00015825,"MEAN_MOTION_DDOT":0},{"OBJECT_NAME":"STARLINK-30297","OBJECT_ID":"2023-124V","EPOCH":"2023-09-15T14:00:01.000224","MEAN_MOTION":15.43932959,"ECCENTRICITY":0.000129,"INCLINATION":53.0541,"RA_OF_ASC_NODE":84.4185,"ARG_OF_PERICENTER":137.6692,"MEAN_ANOMALY":51.8918,"EPHEMERIS_TYPE":0,"CLASSIFICATION_TYPE":"U","NORAD_CAT_ID":57682,"ELEMENT_SET_NO":999,"REV_AT_EPOCH":506,"BSTAR":-0.0014835,"MEAN_MOTION_DOT":-0.00068349,"MEAN_MOTION_DDOT":0},{"OBJECT_NAME":"STARLINK-30295","OBJECT_ID":"2023-124W","EPOCH":"2023-09-15T14:00:01.000224","MEAN_MOTION":15.59412484,"ECCENTRICITY":0.0001988,"INCLINATION":53.0546,"RA_OF_ASC_NODE":83.4285,"ARG_OF_PERICENTER":107.7698,"MEAN_ANOMALY":209.3499,"EPHEMERIS_TYPE":0,"CLASSIFICATION_TYPE":"U","NORAD_CAT_ID":57683,"ELEMENT_SET_NO":999,"REV_AT_EPOCH":506,"BSTAR":-0.0128,"MEAN_MOTION_DOT":-0.00934798,"MEAN_MOTION_DDOT":0},{"OBJECT_NAME":"PROGRESS-MS 24","OBJECT_ID":"2023-125A","EPOCH":"2023-09-15T09:57:44.907840","MEAN_MOTION":15.49298881,"ECCENTRICITY":0.0005745,"INCLINATION":51.6411,"RA_OF_ASC_NODE":241.5794,"ARG_OF_PERICENTER":20.8373,"MEAN_ANOMALY":139.0145,"EPHEMERIS_TYPE":0,"CLASSIFICATION_TYPE":"U","NORAD_CAT_ID":57691,"ELEMENT_SET_NO":999,"REV_AT_EPOCH":41578,"BSTAR":0.00032632,"MEAN_MOTION_DOT":0.00017764,"MEAN_MOTION_DDOT":0},{"OBJECT_NAME":"CAPELLA-11 (ACADIA)","OBJECT_ID":"2023-126A","EPOCH":"2023-09-15T18:44:03.081408","MEAN_MOTION":14.75278088,"ECCENTRICITY":0.0007151,"INCLINATION":53.0121,"RA_OF_ASC_NODE":192.4376,"ARG_OF_PERICENTER":8.7237,"MEAN_ANOMALY":351.3861,"EPHEMERIS_TYPE":0,"CLASSIFICATION_TYPE":"U","NORAD_CAT_ID":57693,"ELEMENT_SET_NO":999,"REV_AT_EPOCH":336,"BSTAR":0.00091323,"MEAN_MOTION_DOT":6.03e-5,"MEAN_MOTION_DDOT":0},{"OBJECT_NAME":"ELECTRON KICK STAGE R\/B","OBJECT_ID":"2023-126B","EPOCH":"2023-09-15T10:28:16.890240","MEAN_MOTION":14.75570214,"ECCENTRICITY":0.0009794,"INCLINATION":53.012,"RA_OF_ASC_NODE":193.8567,"ARG_OF_PERICENTER":352.4506,"MEAN_ANOMALY":7.6319,"EPHEMERIS_TYPE":0,"CLASSIFICATION_TYPE":"U","NORAD_CAT_ID":57694,"ELEMENT_SET_NO":999,"REV_AT_EPOCH":331,"BSTAR":0.00051591,"MEAN_MOTION_DOT":3.336e-5,"MEAN_MOTION_DDOT":0},{"OBJECT_NAME":"JILIN-1 KUANFU 02A","OBJECT_ID":"2023-127A","EPOCH":"2023-09-15T17:33:19.315584","MEAN_MOTION":15.09435058,"ECCENTRICITY":0.0012682,"INCLINATION":97.5933,"RA_OF_ASC_NODE":344.0345,"ARG_OF_PERICENTER":208.7698,"MEAN_ANOMALY":151.2833,"EPHEMERIS_TYPE":0,"CLASSIFICATION_TYPE":"U","NORAD_CAT_ID":57696,"ELEMENT_SET_NO":999,"REV_AT_EPOCH":325,"BSTAR":0.00046862,"MEAN_MOTION_DOT":7.449e-5,"MEAN_MOTION_DDOT":0},{"OBJECT_NAME":"CREW DRAGON 7","OBJECT_ID":"2023-128A","EPOCH":"2023-09-15T09:57:44.907840","MEAN_MOTION":15.49298881,"ECCENTRICITY":0.0005745,"INCLINATION":51.6411,"RA_OF_ASC_NODE":241.5794,"ARG_OF_PERICENTER":20.8373,"MEAN_ANOMALY":139.0145,"EPHEMERIS_TYPE":0,"CLASSIFICATION_TYPE":"U","NORAD_CAT_ID":57697,"ELEMENT_SET_NO":999,"REV_AT_EPOCH":41578,"BSTAR":0.00032632,"MEAN_MOTION_DOT":0.00017764,"MEAN_MOTION_DDOT":0}]
