STARLINK-30274          
1 57672U 23124K   23258.58334491 -.00040628  00000+0 -87637-3 0  9991
2 57672  53.0541  84.4294 0001709 126.6750  57.6400 15.43884794  4922
STARLINK-30316          
1 57673U 23124L   23258.58334491  .00002665  00000+0  66925-4 0  9997
2 57673  53.0541  84.4269 0001564 101.1164  84.3771 15.43865175  4763
STARLINK-30314          
1 57674U 23124M   23258.58334491  .00003387  00000+0  82591-4 0  9997
2 57674  53.0540  84.4239 0001963 120.8529  65.8283 15.43860251  4713
STARLINK-30317          
1 57675U 23124N   23258.58334491 -.00004796  00000+0 -95001-4 0  9995
2 57675  53.0540  84.4251 0000961 123.9553  62.1278 15.43867509  5062
STARLINK-30313          
1 57676U 23124P   23258.58334491  .00021580  00000+0  47620-3 0  9997
2 57676  53.0540  84.4238 0000905 139.9168  47.3540 15.43852147  5064
STARLINK-30303          
1 57677U 23124Q   23258.58334491 -.00000154  00000+0  57979-5 0  9993
2 57677  53.0539  84.4204 0002642 135.6785  53.3551 15.43866079  4926
STARLINK-30320          
1 57678U 23124R   23258.58334491  .00020428  00000+0  45129-3 0  9991
2 57678  53.0541  84.4223 0002123 131.1326  56.7262 15.43854022  5075
STARLINK-30321          
1 57679U 23124S   23258.58334491  .00006551  00000+0  15114-3 0  9994
2 57679  53.0540  84.4168 0002148 106.9280  83.8760 15.43861193  4608
STARLINK-30283          
1 57680U 23124T   23258.58334491 -.00058989  00000+0 -12781-2 0  9996
2 57680  53.0539  84.4175 0002015 128.7511  61.4213 15.43918000  5064
STARLINK-30273          
1 57681U 23124U   23258.58334491  .00015825  00000+0  35185-3 0  9991
2 57681  53.0541  84.4213 0002348 141.3542  47.0971 15.43855270  5065
STARLINK-30297          
1 57682U 23124V   23258.58334491 -.00068349  00000+0 -14835-2 0  9991
2 57682  53.0541  84.4185 0001290 137.6692  51.8918 15.43932959  5067
STARLINK-30295          
1 57683U 23124W   23258.58334491 -.00934798  00000+0 -12800-1 0  9991
2 57683  53.0546  83.4285 0001988 107.7698 209.3499 15.59412484  5068
PROGRESS-MS 24          
1 57691U 23125A   23258.41510310  .00017764  00000+0  32632-3 0  9999
2 57691  51.6411 241.5794 0005745  20.8373 139.0145 15.49298881415787
CAPELLA-11 (ACADIA)     
1 57693U 23126A   23258.78059122  .00006030  00000+0  91323-3 0  9997
2 57693  53.0121 192.4376 0007151   8.7237 351.3861 14.75278088  3366
ELECTRON KICK STAGE R/B 
1 57694U 23126B   23258.43630660  .00003336  00000+0  51591-3 0  9991
2 57694  53.0120 193.8567 0009794 352.4506   7.6319 14.75570214  3316
JILIN-1 KUANFU 02A      
1 57696U 23127A   23258.73147356  .00007449  00000+0  46862-3 0  9996
2 57696  97.5933 344.0345 0012682 208.7698 151.2833 15.09435058  3256
CREW DRAGON 7           
1 57697U 23128A   23258.41510310  .00017764  00000+0  32632-3 0  9998
2 57697  51.6411 241.5794 0005745  20.8373 139.0145 15.49298881415783
